{"type": "FeatureCollection", "features": [ {"type": "Feature", "properties": {"norad_id": 38146, "name": "FENGYUN 1C DEB", "group": "fengyun-1c-debris", "lat": -32.92813054847169, "lon": 71.3740873339537, "alt_km": 813.5416392730876, "timestamp": "2025-12-10T21:43:22.377668+00:00", "meta": {"OBJECT_NAME": "FENGYUN 1C DEB", "OBJECT_ID": "1999-025EQT", "EPOCH": "2025-12-03T10:45:50.404320", "MEAN_MOTION": 14.59033464, "ECCENTRICITY": 0.02030621, "INCLINATION": 99.485, "RA_OF_ASC_NODE": 56.6441, "ARG_OF_PERICENTER": 130.793, "MEAN_ANOMALY": 291.7125, "EPHEMERIS_TYPE": 0, "CLASSIFICATION_TYPE": "U", "NORAD_CAT_ID": 38146, "ELEMENT_SET_NO": 999, "REV_AT_EPOCH": 31744, "BSTAR": 0.0015249301, "MEAN_MOTION_DOT": 9.498e-05, "MEAN_MOTION_DDOT": 0}, "tle": {"line1": "1 38146U 99025EQT 25337.44850005  .00009498  00000+0  15249-2 0  9995", "line2": "2 38146  99.4850  56.6441 0203062 130.7930 291.7125 14.59033464317446"}}, "geometry": {"type": "Point", "coordinates": [71.3740873339537, -32.92813054847169]}}, {"type": "Feature", "properties": {"norad_id": 38147, "name": "FENGYUN 1C DEB", "group": "fengyun-1c-debris", "lat": 11.364756969257348, "lon": -2.5554412035759, "alt_km": 800.2535637711117, "timestamp": "2025-12-10T21:43:22.377680+00:00", "meta": {"OBJECT_NAME": "FENGYUN 1C DEB", "OBJECT_ID": "1999-025EQU", "EPOCH": "2025-12-09T18:40:37.432992", "MEAN_MOTION": 14.2343176, "ECCENTRICITY": 0.00497476, "INCLINATION": 98.5592, "RA_OF_ASC_NODE": 358.0831, "ARG_OF_PERICENTER": 309.111, "MEAN_ANOMALY": 50.5651, "EPHEMERIS_TYPE": 0, "CLASSIFICATION_TYPE": "U", "NORAD_CAT_ID": 38147, "ELEMENT_SET_NO": 999, "REV_AT_EPOCH": 60345, "BSTAR": 0.00097237466, "MEAN_MOTION_DOT": 2.194e-05, "MEAN_MOTION_DDOT": 0}, "tle": {"line1": "1 38147U 99025EQU 25343.77821103  .00002194  00000+0  97237-3 0  9990", "line2": "2 38147  98.5592 358.0831 0049747 309.1110  50.5651 14.23431760603458"}}, "geometry": {"type": "Point", "coordinates": [-2.5554412035759, 11.364756969257348]}}, {"type": "Feature", "properties": {"norad_id": 38149, "name": "FENGYUN 1C DEB", "group": "fengyun-1c-debris", "lat": 43.215819428047574, "lon": 165.16333047785272, "alt_km": 753.5666948560502, "timestamp": "2025-12-10T21:43:22.377690+00:00", "meta": {"OBJECT_NAME": "FENGYUN 1C DEB", "OBJECT_ID": "1999-025EQW", "EPOCH": "2025-12-07T17:18:01.960128", "MEAN_MOTION": 14.25910713, "ECCENTRICITY": 0.00777044, "INCLINATION": 98.3566, "RA_OF_ASC_NODE": 334.1881, "ARG_OF_PERICENTER": 175.9559, "MEAN_ANOMALY": 184.2267, "EPHEMERIS_TYPE": 0, "CLASSIFICATION_TYPE": "U", "NORAD_CAT_ID": 38149, "ELEMENT_SET_NO": 999, "REV_AT_EPOCH": 70416, "BSTAR": 0.00036135678, "MEAN_MOTION_DOT": 8.47e-06, "MEAN_MOTION_DDOT": 0}, "tle": {"line1": "1 38149U 99025EQW 25341.72085602  .00000847  00000+0  36136-3 0  9995", "line2": "2 38149  98.3566 334.1881 0077704 175.9559 184.2267 14.25910713704169"}}, "geometry": {"type": "Point", "coordinates": [165.16333047785272, 43.215819428047574]}}, {"type": "Feature", "properties": {"norad_id": 38155, "name": "FENGYUN 1C DEB", "group": "fengyun-1c-debris", "lat": 76.3079121260952, "lon": -148.26465755943735, "alt_km": 760.1159678651256, "timestamp": "2025-12-10T21:43:22.377700+00:00", "meta": {"OBJECT_NAME": "FENGYUN 1C DEB", "OBJECT_ID": "1999-025ERC", "EPOCH": "2025-12-09T23:26:42.825120", "MEAN_MOTION": 14.2501054, "ECCENTRICITY": 0.00946971, "INCLINATION": 98.4476, "RA_OF_ASC_NODE": 248.4308, "ARG_OF_PERICENTER": 135.2408, "MEAN_ANOMALY": 225.6463, "EPHEMERIS_TYPE": 0, "CLASSIFICATION_TYPE": "U", "NORAD_CAT_ID": 38155, "ELEMENT_SET_NO": 999, "REV_AT_EPOCH": 63736, "BSTAR": 0.0028448127, "MEAN_MOTION_DOT": 6.943e-05, "MEAN_MOTION_DDOT": 0}, "tle": {"line1": "1 38155U 99025ERC 25343.97688455  .00006943  00000+0  28448-2 0  9995", "line2": "2 38155  98.4476 248.4308 0094697 135.2408 225.6463 14.25010540637364"}}, "geometry": {"type": "Point", "coordinates": [-148.26465755943735, 76.3079121260952]}}, {"type": "Feature", "properties": {"norad_id": 38157, "name": "FENGYUN 1C DEB", "group": "fengyun-1c-debris", "lat": 24.909699080602056, "lon": 76.2249257990775, "alt_km": 655.5555598126157, "timestamp": "2025-12-10T21:43:22.377710+00:00", "meta": {"OBJECT_NAME": "FENGYUN 1C DEB", "OBJECT_ID": "1999-025ERE", "EPOCH": "2025-12-10T12:34:26.916096", "MEAN_MOTION": 14.21721958, "ECCENTRICITY": 0.02740752, "INCLINATION": 99.6558, "RA_OF_ASC_NODE": 251.273, "ARG_OF_PERICENTER": 120.5685, "MEAN_ANOMALY": 242.2838, "EPHEMERIS_TYPE": 0, "CLASSIFICATION_TYPE": "U", "NORAD_CAT_ID": 38157, "ELEMENT_SET_NO": 999, "REV_AT_EPOCH": 76216, "BSTAR": 0.00080546469, "MEAN_MOTION_DOT": 2.539e-05, "MEAN_MOTION_DDOT": 0}, "tle": {"line1": "1 38157U 99025ERE 25344.52392264  .00002539  00000+0  80546-3 0  9994", "line2": "2 38157  99.6558 251.2730 0274075 120.5685 242.2838 14.21721958762161"}}, "geometry": {"type": "Point", "coordinates": [76.2249257990775, 24.909699080602056]}}, {"type": "Feature", "properties": {"norad_id": 38159, "name": "FENGYUN 1C DEB", "group": "fengyun-1c-debris", "lat": -18.58886331850003, "lon": -120.3192468090958, "alt_km": 845.4790891967587, "timestamp": "2025-12-10T21:43:22.377722+00:00", "meta": {"OBJECT_NAME": "FENGYUN 1C DEB", "OBJECT_ID": "1999-025ERG", "EPOCH": "2025-12-04T22:05:20.152032", "MEAN_MOTION": 14.03448484, "ECCENTRICITY": 0.005704, "INCLINATION": 99.3156, "RA_OF_ASC_NODE": 230.39, "ARG_OF_PERICENTER": 2.347, "MEAN_ANOMALY": 357.7952, "EPHEMERIS_TYPE": 0, "CLASSIFICATION_TYPE": "U", "NORAD_CAT_ID": 38159, "ELEMENT_SET_NO": 999, "REV_AT_EPOCH": 83002, "BSTAR": 0.0010527, "MEAN_MOTION_DOT": 1.625e-05, "MEAN_MOTION_DDOT": 0}, "tle": {"line1": "1 38159U 99025ERG 25338.92037213  .00001625  00000+0  10527-2 0  9999", "line2": "2 38159  99.3156 230.3900 0057040   2.3470 357.7952 14.03448484830021"}}, "geometry": {"type": "Point", "coordinates": [-120.3192468090958, -18.58886331850003]}}, {"type": "Feature", "properties": {"norad_id": 38163, "name": "FENGYUN 1C DEB", "group": "fengyun-1c-debris", "lat": -64.33014347935246, "lon": -178.12472758500903, "alt_km": 825.6628818671206, "timestamp": "2025-12-10T21:43:22.377732+00:00", "meta": {"OBJECT_NAME": "FENGYUN 1C DEB", "OBJECT_ID": "1999-025ERL", "EPOCH": "2025-12-08T20:43:41.634048", "MEAN_MOTION": 14.05900576, "ECCENTRICITY": 0.0075743, "INCLINATION": 99.1292, "RA_OF_ASC_NODE": 19.3646, "ARG_OF_PERICENTER": 253.1337, "MEAN_ANOMALY": 106.1514, "EPHEMERIS_TYPE": 0, "CLASSIFICATION_TYPE": "U", "NORAD_CAT_ID": 38163, "ELEMENT_SET_NO": 999, "REV_AT_EPOCH": 24487, "BSTAR": 0.0010133, "MEAN_MOTION_DOT": 1.656e-05, "MEAN_MOTION_DDOT": 0}, "tle": {"line1": "1 38163U 99025ERL 25342.86367632  .00001656  00000+0  10133-2 0  9990", "line2": "2 38163  99.1292  19.3646 0075743 253.1337 106.1514 14.05900576244874"}}, "geometry": {"type": "Point", "coordinates": [-178.12472758500903, -64.33014347935246]}}, {"type": "Feature", "properties": {"norad_id": 38166, "name": "FENGYUN 1C DEB", "group": "fengyun-1c-debris", "lat": -39.21641649123592, "lon": 95.40011505040798, "alt_km": 795.0187636152732, "timestamp": "2025-12-10T21:43:22.377742+00:00", "meta": {"OBJECT_NAME": "FENGYUN 1C DEB", "OBJECT_ID": "1999-025ERP", "EPOCH": "2025-12-10T01:46:09.832224", "MEAN_MOTION": 14.30886047, "ECCENTRICITY": 0.0052452, "INCLINATION": 99.0791, "RA_OF_ASC_NODE": 87.0343, "ARG_OF_PERICENTER": 52.8175, "MEAN_ANOMALY": 307.7778, "EPHEMERIS_TYPE": 0, "CLASSIFICATION_TYPE": "U", "NORAD_CAT_ID": 38166, "ELEMENT_SET_NO": 999, "REV_AT_EPOCH": 63734, "BSTAR": 0.0039126946, "MEAN_MOTION_DOT": 0.00010394, "MEAN_MOTION_DDOT": 0}, "tle": {"line1": "1 38166U 99025ERP 25344.07372491  .00010394  00000+0  39127-2 0  9990", "line2": "2 38166  99.0791  87.0343 0052452  52.8175 307.7778 14.30886047637345"}}, "geometry": {"type": "Point", "coordinates": [95.40011505040798, -39.21641649123592]}}, {"type": "Feature", "properties": {"norad_id": 38169, "name": "FENGYUN 1C DEB", "group": "fengyun-1c-debris", "lat": -8.849529529102762, "lon": 137.52055031319065, "alt_km": 672.2370135190486, "timestamp": "2025-12-10T21:43:22.377752+00:00", "meta": {"OBJECT_NAME": "FENGYUN 1C DEB", "OBJECT_ID": "1999-025ERS", "EPOCH": "2025-11-22T03:51:43.920000", "MEAN_MOTION": 14.70462609, "ECCENTRICITY": 0.00311315, "INCLINATION": 98.9783, "RA_OF_ASC_NODE": 298.2991, "ARG_OF_PERICENTER": 127.7379, "MEAN_ANOMALY": 232.6652, "EPHEMERIS_TYPE": 0, "CLASSIFICATION_TYPE": "U", "NORAD_CAT_ID": 38169, "ELEMENT_SET_NO": 999, "REV_AT_EPOCH": 60966, "BSTAR": 0.0026738914, "MEAN_MOTION_DOT": 0.00016302, "MEAN_MOTION_DDOT": 0}, "tle": {"line1": "1 38169U 99025ERS 25326.16092500  .00016302  00000+0  26739-2 0  9993", "line2": "2 38169  98.9783 298.2991 0031131 127.7379 232.6652 14.70462609609660"}}, "geometry": {"type": "Point", "coordinates": [137.52055031319065, -8.849529529102762]}}, {"type": "Feature", "properties": {"norad_id": 38173, "name": "FENGYUN 1C DEB", "group": "fengyun-1c-debris", "lat": 10.184819942787458, "lon": -116.59339576527641, "alt_km": 802.7637767824008, "timestamp": "2025-12-10T21:43:22.377765+00:00", "meta": {"OBJECT_NAME": "FENGYUN 1C DEB", "OBJECT_ID": "1999-025ERW", "EPOCH": "2025-12-08T11:11:29.864832", "MEAN_MOTION": 14.37138135, "ECCENTRICITY": 0.01627901, "INCLINATION": 98.9997, "RA_OF_ASC_NODE": 242.4873, "ARG_OF_PERICENTER": 125.1423, "MEAN_ANOMALY": 236.5139, "EPHEMERIS_TYPE": 0, "CLASSIFICATION_TYPE": "U", "NORAD_CAT_ID": 38173, "ELEMENT_SET_NO": 999, "REV_AT_EPOCH": 60582, "BSTAR": 0.0013067614, "MEAN_MOTION_DOT": 4.475e-05, "MEAN_MOTION_DDOT": 0}, "tle": {"line1": "1 38173U 99025ERW 25342.46631788  .00004475  00000+0  13068-2 0  9995", "line2": "2 38173  98.9997 242.4873 0162790 125.1423 236.5139 14.37138135605824"}}, "geometry": {"type": "Point", "coordinates": [-116.59339576527641, 10.184819942787458]}}]}